TIGER-6                 
1 58272U 23174S   26068.73366727  .00113437  00000+0  98002-3 0  9994
2 58272  97.3904 161.9275 0003121 155.9023 204.2385 15.68857868130641
STARLINK-11308 [DTC]    
1 61246U 24175D   26068.21822941 -.00001781  00000+0 -98441-5 0  9998
2 61246  53.1588  58.5027 0001210  96.8002 263.3154 15.69705818 83293
