[{"OBJECT_NAME":"TIGER-6","OBJECT_ID":"2023-174S","EPOCH":"2026-03-09T17:36:28.852992","MEAN_MOTION":15.68857868,"ECCENTRICITY":0.0003121,"INCLINATION":97.3904,"RA_OF_ASC_NODE":161.9275,"ARG_OF_PERICENTER":155.9023,"MEAN_ANOMALY":204.2385,"EPHEMERIS_TYPE":0,"CLASSIFICATION_TYPE":"U","NORAD_CAT_ID":58272,"ELEMENT_SET_NO":999,"REV_AT_EPOCH":13064,"BSTAR":0.00098002434,"MEAN_MOTION_DOT":0.00113437,"MEAN_MOTION_DDOT":0},{"OBJECT_NAME":"STARLINK-11308 [DTC]","OBJECT_ID":"2024-175D","EPOCH":"2026-03-09T05:14:15.021024","MEAN_MOTION":15.69705818,"ECCENTRICITY":0.00012101,"INCLINATION":53.1588,"RA_OF_ASC_NODE":58.5027,"ARG_OF_PERICENTER":96.8002,"MEAN_ANOMALY":263.3154,"EPHEMERIS_TYPE":0,"CLASSIFICATION_TYPE":"U","NORAD_CAT_ID":61246,"ELEMENT_SET_NO":999,"REV_AT_EPOCH":8329,"BSTAR":-9.844118e-6,"MEAN_MOTION_DOT":-1.781e-5,"MEAN_MOTION_DDOT":0}]
